OBJECT_NAME,OBJECT_ID,EPOCH,MEAN_MOTION,ECCENTRICITY,INCLINATION,RA_OF_ASC_NODE,ARG_OF_PERICENTER,MEAN_ANOMALY,EPHEMERIS_TYPE,CLASSIFICATION_TYPE,NORAD_CAT_ID,ELEMENT_SET_NO,REV_AT_EPOCH,BSTAR,MEAN_MOTION_DOT,MEAN_MOTION_DDOT
CUBEBUG-2 (LO-74),2013-066AA,2026-07-04T14:42:16.382304,14.93916607,.00564222,97.8913,134.6663,331.4449,28.3683,0,U,39440,999,67959,.68653672E-3,.7477E-4,0
FUNCUBE-1 (AO-73),2013-066AE,2026-07-04T08:34:02.082720,15.09704322,.00373909,97.8284,157.1639,143.1245,217.2566,0,U,39444,999,68225,.58073981E-3,.9451E-4,0
UWE-3,2013-066AG,2026-07-04T14:14:29.893920,14.97155710,.00473244,97.8706,141.7872,261.5347,98.0509,0,U,39446,999,68018,.47583188E-3,.5562E-4,0
UNISAT-6,2014-033C,2026-07-04T09:53:20.885856,14.88331138,.00450925,97.7902,337.8229,13.5030,346.7381,0,U,40012,999,64872,.32441475E-3,.3002E-4,0
DUCHIFAT-1,2014-033M,2026-07-03T16:42:34.319520,15.68277261,.00003219,98.0432,246.2208,267.7040,92.4182,0,U,40021,999,65833,.12811874E-2,.145426E-2,0
QB50P1,2014-033R,2026-07-04T11:34:03.862560,15.18541175,.00096133,98.0964,197.8434,156.7377,203.4292,0,U,40025,999,65565,.73515104E-3,.15142E-3,0
LILACSAT-2,2015-049K,2026-07-04T14:51:39.083904,15.52051783,.00074747,97.4623,223.1276,174.2311,185.9029,0,U,40908,999,59845,.47879561E-3,.28852E-3,0
FOX-1A (AO-85),2015-058D,2026-07-04T12:33:30.252384,14.91048439,.01315515,64.7734,225.1060,49.8694,311.3855,0,U,40967,999,11615,.3512886E-3,.394E-4,0
CAS-2T & KS-1Q,2016-066G,2026-07-04T11:39:48.526848,14.44750691,.03427469,98.3815,261.0243,77.1704,286.7545,0,U,41847,999,50729,.24203059E-3,.1682E-4,0
RADFXSAT (FOX-1B),2017-073E,2026-07-04T01:47:07.747872,15.12944188,.01481297,97.4676,51.9443,270.3124,88.1134,0,U,43017,999,46794,.34432933E-3,.788E-4,0
DIWATA-2B,2018-084H,2026-07-04T13:47:56.590656,15.00529470,.00130648,98.1207,22.5420,116.7030,243.5531,0,U,43678,999,41882,.24498462E-3,.3028E-4,0
ES'HAIL 2,2018-090A,2026-07-04T14:00:34.735104,1.00273806,.00022943,0.0129,60.5903,81.3212,16.6260,0,U,43700,999,2785,0,.157E-5,0
FOX-1CLIFF (AO-95),2018-099N,2026-07-04T02:48:11.931264,15.27076980,.00069323,97.4372,245.3036,287.7231,72.3251,0,U,43770,999,41580,.5816446E-3,.15402E-3,0
ITASAT,2018-099AE,2026-07-04T14:36:06.044256,15.19286795,.00107606,97.4013,236.7736,293.4333,66.5770,0,U,43786,999,41555,.61886345E-3,.13021E-3,0
JY1SAT (JO-97),2018-099AX,2026-07-04T02:55:50.176128,15.34211411,.00058131,97.4120,248.0201,193.8667,166.2417,0,U,43803,999,41622,.69953957E-3,.2314E-3,0
UWE-4,2018-111E,2026-07-04T13:18:03.220416,15.47262516,.00045741,97.5847,114.7586,243.2837,116.7944,0,U,43880,999,41346,.13248936E-2,.67914E-3,0
TIANYAN 01,2019-093C,2026-07-04T14:42:58.655232,14.86547292,.00144497,97.7524,257.4200,34.7843,325.4315,0,U,44881,999,35400,.12782031E-3,.108E-4,0
RS-44 & BREEZE-KM R/B,2019-096E,2026-07-04T08:40:22.015488,12.79748976,.02185874,82.5235,328.2921,104.1934,258.3557,0,U,44909,999,30454,.10564714E-4,.16E-6,0
SALSAT,2020-068K,2026-07-04T11:27:58.980672,15.30057656,.00082082,97.8855,189.5980,234.4468,125.6006,0,U,46495,999,31800,.47010278E-3,.13616E-3,0
XW-3 (CAS-9),2021-131B,2026-07-04T14:49:18.187104,14.41374031,.00051453,98.4990,277.9134,57.1397,303.0287,0,U,50466,999,23762,.19608484E-3,.591E-5,0
GREENCUBE (IO-117),2022-080E,2026-07-04T07:18:11.902752,6.42583223,.00089549,70.1435,292.2925,285.9105,74.0568,0,U,53109,999,9316,0,-.3E-7,0
UMKA 1 (RS40S),2023-091G,2026-07-04T14:16:10.665696,15.21033126,.00139274,97.5036,244.2261,63.6275,296.6388,0,U,57172,999,16665,.48485153E-3,.10726E-3,0
CUBESX-HSE 3 (RS42S),2023-091N,2026-07-03T23:11:44.903616,15.31646892,.00108793,97.5080,250.7696,41.2917,318.9145,0,U,57178,999,16699,.54024092E-3,.16476E-3,0
MONITOR-3 (RS58S),2023-091Q,2026-07-04T14:49:32.088864,15.28213740,.00120787,97.5069,249.1948,45.6734,314.5494,0,U,57180,999,16695,.7609931E-3,.20927E-3,0
MONITOR-4 (RS57S),2023-091S,2026-07-04T04:52:17.123808,15.28278388,.00121241,97.5064,248.7488,47.3732,312.8527,0,U,57182,999,16689,.52292813E-3,.14373E-3,0
MONITOR-2 (RS39S),2023-091U,2026-07-04T15:18:32.393952,15.19084844,.00123037,97.5059,243.8089,57.8347,302.4079,0,U,57184,999,16660,.41619156E-3,.8682E-4,0
SVYATOBOR 1 (RS60S),2023-091X,2026-07-04T14:58:47.524224,15.26928963,.00098229,97.5075,249.5401,40.6043,319.5927,0,U,57187,999,16697,.6822767E-3,.18016E-3,0
VIZARD-METEO (RS38S),2023-091Z,2026-07-04T11:21:29.523168,15.36596660,.00067011,97.5079,255.3105,21.3484,338.8038,0,U,57189,999,16734,.74730134E-3,.26696E-3,0
POLYTECH-UNIVERSE 3 (RS46S),2023-091AB,2026-07-04T14:19:28.881984,15.19292190,.00168368,97.5033,243.2723,71.7721,288.5344,0,U,57191,999,16659,.41654456E-3,.8757E-4,0
UTMN 2 (RS27S),2023-091AP,2026-07-04T15:04:14.163744,15.32503952,.00078674,97.5073,253.0947,28.5017,331.6653,0,U,57203,999,16721,.80856847E-3,.25376E-3,0
